IRIDIUM 136             
1 42962U 17061H   24169.89345622  .00000163  00000+0  51162-4 0  9997
2 42962  86.3967 330.0251 0001787  92.5112 267.6288 14.34218426350306
